NORAD_CAT_ID,OBJECT_NAME,OBJECT_TYPE,EPOCH,MEAN_MOTION,ECCENTRICITY,INCLINATION,RA_OF_ASC_NODE,ARG_OF_PERICENTER,MEAN_ANOMALY,BSTAR,MEAN_MOTION_DOT,MEAN_MOTION_DDOT,TLE_LINE0,TLE_LINE1,TLE_LINE2,SEMIMAJOR_AXIS,PERIOD,APOGEE,PERIGEE,DECAYED
53714.0,STARLINK-4688,PAYLOAD,2022-10-14 14:00:01,15.73198198,0.0001314,53.2173,77.6947,76.4641,190.0829,9.0559e-05,0.00012107,0.0,0 STARLINK-4688,1 53714U 22107Q   22287.58334491  .00012107  00000-0  90559-4 0  9993,2 53714  53.2173  77.6947 0001314  76.4641 190.0829 15.73198198  1305,6727.9,91.533,350.649,348.881,0.0
53714.0,STARLINK-4688,PAYLOAD,2022-10-14 16:00:00,15.73206022,0.0001322,53.2174,77.2829,70.7552,308.0228,-1.8593e-05,-3.229e-05,0.0,0 STARLINK-4688,1 53714U 22107Q   22287.66667824 -.00003229  00000-0 -18593-4 0  9996,2 53714  53.2174  77.2829 0001322  70.7552 308.0228 15.73206022  6358,6727.878000000002,91.533,350.63199999999995,348.85400000000016,0.0
53714.0,STARLINK-4688,PAYLOAD,2022-10-14 22:00:00,15.73203766,0.0001286,53.2171,76.0463,69.0128,286.4663,1.6277e-05,1.665e-05,0.0,0 STARLINK-4688,1 53714U 22107Q   22287.91667824  .00001665  00000-0  16277-4 0  9991,2 53714  53.2171  76.0463 0001286  69.0128 286.4663 15.73203766  1309,6727.884,91.533,350.615,348.884,0.0
53714.0,STARLINK-4688,PAYLOAD,2022-10-15 14:00:01,15.73269551,0.0001238,53.214,72.7475,45.791,127.713,-0.00021259,-0.00030437,0.0,0 STARLINK-4688,1 53714U 22107Q   22288.58334491 -.00030437  00000-0 -21259-3 0  9992,2 53714  53.2140  72.7475 0001238  45.7910 127.7130 15.73269551  1308,6727.696999999999,91.529,350.395,348.72900000000016,0.0
53714.0,STARLINK-4688,PAYLOAD,2022-10-15 22:00:01,15.73397448,0.0001418,53.2153,71.09899999999998,41.0497,221.4932,-0.0045771,-0.00604002,0.0,0 STARLINK-4688,1 53714U 22107Q   22288.91668981 -.00604002  00000-0 -45771-2 0  9992,2 53714  53.2153  71.0990 0001418  41.0497 221.4932 15.73397448  6545,6727.331999999999,91.522,350.151,348.24300000000005,0.0
53714.0,STARLINK-4688,PAYLOAD,2022-10-16 14:00:01,15.73183211,0.0001468,53.2137,67.7994,42.0745,38.1544,-0.00029702,-0.00042068,0.0,0 STARLINK-4688,1 53714U 22107Q   22289.58334491 -.00042068  00000-0 -29702-3 0  9997,2 53714  53.2137  67.7994 0001468  42.0745  38.1544 15.73183211  1307,6727.943,91.534,350.796,348.82,0.0
53714.0,STARLINK-4688,PAYLOAD,2022-10-16 22:00:00,15.73247859,0.0001898,53.213,66.1502,49.2714,120.0447,0.00066617,0.00094122,0.0,0 STARLINK-4688,1 53714U 22107Q   22289.91667824  .00094122  00000-0  66617-3 0  9995,2 53714  53.2130  66.1502 0001898  49.2714 120.0447 15.73247859  1302,6727.759,91.53,350.901,348.347,0.0
53714.0,STARLINK-4688,PAYLOAD,2022-10-17 14:00:01,15.72902785,0.0001705,53.216,62.8479,55.4563,292.0452,-0.0037133,-0.00486517,0.0,0 STARLINK-4688,1 53714U 22107Q   22290.58334491 -.00486517  00000-0 -37133-2 0  9996,2 53714  53.2160  62.8479 0001705  55.4563 292.0452 15.72902785  1300,6728.743,91.55,351.755,349.46,0.0
53714.0,STARLINK-4688,PAYLOAD,2022-10-17 22:00:00,15.73153989,0.0002654,53.2133,61.2,58.4222,18.2444,0.00055712,0.00078152,0.0,0 STARLINK-4688,1 53714U 22107Q   22290.91667824  .00078152  00000-0  55712-3 0  9996,2 53714  53.2133  61.2000 0002654  58.4222  18.2444 15.73153989  6862,6728.026,91.536,351.677,348.106,0.0
53714.0,STARLINK-4688,PAYLOAD,2022-10-18 08:00:01,15.73529941,0.0001745,53.2135,59.1349,46.2639,232.1657,0.0007561,0.00108402,0.0,0 STARLINK-4688,1 53714U 22107Q   22291.33334491  .00108402  00000-0  75610-3 0  9995,2 53714  53.2135  59.1349 0001745  46.2639 232.1657 15.73529941  6928,6726.955,91.514,349.994,347.646,0.0
53714.0,STARLINK-4688,PAYLOAD,2022-10-18 14:00:01,15.73589313,0.0001933,53.2132,57.8988,41.5196,213.9298,0.00038594,0.00054814,0.0,0 STARLINK-4688,1 53714U 22107Q   22291.58334491  .00054814  00000-0  38594-3 0  9999,2 53714  53.2132  57.8988 0001933  41.5196 213.9298 15.73589313  1308,6726.785,91.511,349.951,347.35,0.0
53714.0,STARLINK-4688,PAYLOAD,2022-10-18 22:00:00,15.73625151,0.0002000999999999,53.2126,56.2484,38.2631,306.5759,0.00041121,0.00058562,0.0,0 STARLINK-4688,1 53714U 22107Q   22291.91667824  .00058562  00000-0  41121-3 0  9999,2 53714  53.2126  56.2484 0002001  38.2631 306.5759 15.73625151  1301,6726.683000000001,91.508,349.894,347.202,0.0
53714.0,STARLINK-4688,PAYLOAD,2022-10-19 14:00:01,15.73738238,0.0002049,53.2131,52.9465,39.4623,124.3795,0.00039689,0.00056766,0.0,0 STARLINK-4688,1 53714U 22107Q   22292.58334491  .00056766  00000-0  39689-3 0  9994,2 53714  53.2131  52.9465 0002049  39.4623 124.3795 15.73738238  1302,6726.361,91.502,349.60400000000016,346.848,0.0
53714.0,STARLINK-4688,PAYLOAD,2022-10-19 22:00:00,15.73789646,0.0002114,53.213,51.2955,35.8409,217.5766,0.00036721,0.00052565,0.0,0 STARLINK-4688,1 53714U 22107Q   22292.91667824  .00052565  00000-0  36721-3 0  9997,2 53714  53.2130  51.2955 0002114  35.8409 217.5766 15.73789646  1304,6726.215,91.499,349.50199999999984,346.658,0.0
53714.0,STARLINK-4688,PAYLOAD,2022-10-20 06:00:00,15.73790861,0.000202,53.2132,49.6427,41.0941,301.9445,0.00076913,0.00111573,0.0,0 STARLINK-4688,1 53714U 22107Q   22293.25001157  .00111573  00000-0  76913-3 0  9998,2 53714  53.2132  49.6427 0002020  41.0941 301.9445 15.73790861  7238,6726.2109999999975,91.499,349.435,346.717,0.0
53714.0,STARLINK-4688,PAYLOAD,2022-10-20 14:00:01,15.73875751,0.0002253,53.213,47.9935,37.929,34.8066,0.00031522,0.00045163,0.0,0 STARLINK-4688,1 53714U 22107Q   22293.58334491  .00045163  00000-0  31522-3 0  9992,2 53714  53.2130  47.9935 0002253  37.9290  34.8066 15.73875751  1305,6725.969,91.494,349.35,346.319,0.0
53714.0,STARLINK-4688,PAYLOAD,2022-10-20 22:00:00,15.73931389,0.0002285,53.2125,46.342,36.4274,126.0609,0.00028041,0.0004017999999999,0.0,0 STARLINK-4688,1 53714U 22107Q   22293.91667824  .00040180  00000-0  28041-3 0  9994,2 53714  53.2125  46.3420 0002285  36.4274 126.0609 15.73931389  7338,6725.811,91.491,349.213,346.139,0.0
53714.0,STARLINK-4688,PAYLOAD,2022-10-21 06:00:00,15.73931924,0.0002121999999999,53.2128,44.6888,40.8159,211.4578,0.00075088,0.00109551,0.0,0 STARLINK-4688,1 53714U 22107Q   22294.25001157  .00109551  00000-0  75088-3 0  9994,2 53714  53.2128  44.6888 0002122  40.8159 211.4578 15.73931924  7385,6725.809,91.491,349.101,346.247,0.0
53714.0,STARLINK-4688,PAYLOAD,2022-10-21 14:00:01,15.73997548,0.0002381999999999,53.2131,43.0392,38.0871,304.0324,0.00030524,0.0004394,0.0,0 STARLINK-4688,1 53714U 22107Q   22294.58334491  .00043940  00000-0  30524-3 0  9995,2 53714  53.2131  43.0392 0002382  38.0871 304.0324 15.73997548  1308,6725.621999999999,91.487,349.089,345.885,0.0
53714.0,STARLINK-4688,PAYLOAD,2022-10-21 22:00:00,15.74064837,0.0002428,53.2132,41.3871,35.8572,36.1889,0.00025681,0.00036946,0.0,0 STARLINK-4688,1 53714U 22107Q   22294.91667824  .00036946  00000-0  25681-3 0  9997,2 53714  53.2132  41.3871 0002428  35.8572  36.1889 15.74064837  7498,6725.431,91.483,348.92900000000014,345.663,0.0
53714.0,STARLINK-4688,PAYLOAD,2022-10-22 14:00:01,15.74032843,0.0002052,53.216,38.0846,32.3763,219.6448,-0.003246,-0.00448623,0.0,0 STARLINK-4688,1 53714U 22107Q   22295.58334491 -.00448623  00000-0 -32460-2 0  9995,2 53714  53.2160  38.0846 0002052  32.3763 219.6448 15.74032843  1306,6725.522,91.485,348.767,346.00699999999995,0.0
53714.0,STARLINK-4688,PAYLOAD,2022-10-22 22:00:00,15.73816257,0.0001891,53.2165,36.4327,322.8401,18.9098,-0.003752,-0.00509933,0.0,0 STARLINK-4688,1 53714U 22107Q   22295.91667824 -.00509933  00000-0 -37520-2 0  9995,2 53714  53.2165  36.4327 0001891 322.8401  18.9098 15.73816257  7656,6726.139,91.497,349.276,346.732,0.0
53714.0,STARLINK-4688,PAYLOAD,2022-10-23 08:00:01,15.73347248,0.000386,53.2173,34.3685,285.6263,257.9404,-0.00467,-0.00614711,0.0,0 STARLINK-4688,1 53714U 22107Q   22296.33335648 -.00614711  00000-0 -46700-2 0  9999,2 53714  53.2173  34.3685 0003860 285.6263 257.9404 15.73347248  7711,6727.475,91.525,351.93699999999984,346.744,0.0
53714.0,STARLINK-4688,PAYLOAD,2022-10-23 14:00:01,15.72994046,0.000541,53.217,33.1332,276.4169,243.7746,-0.004377,-0.00570837,0.0,0 STARLINK-4688,1 53714U 22107Q   22296.58334491 -.00570837  00000-0 -43770-2 0  9995,2 53714  53.2170  33.1332 0005410 276.4169 243.7746 15.72994046  1304,6728.482,91.545,353.98800000000006,346.707,0.0
53714.0,STARLINK-4688,PAYLOAD,2022-10-23 22:00:00,15.72601666,0.0006484,53.2168,31.4837,274.713,333.9071,-0.0026784,-0.0035272,0.0,0 STARLINK-4688,1 53714U 22107Q   22296.91667824 -.00352720  00000-0 -26784-2 0  9996,2 53714  53.2168  31.4837 0006484 274.7130 333.9071 15.72601666  1309,6729.602,91.568,355.83,347.103,0.0
53714.0,STARLINK-4688,PAYLOAD,2022-10-24 06:00:00,15.72190971,0.0007007,53.2161,29.834,273.1061,63.5683,0.0029885,0.00422362,0.0,0 STARLINK-4688,1 53714U 22107Q   22297.25001157  .00422362  00000-0  29885-2 0  9998,2 53714  53.2161  29.8340 0007007 273.1061  63.5683 15.72190971  7853,6730.773,91.592,357.355,347.922,0.0
53714.0,STARLINK-4688,PAYLOAD,2022-10-24 14:00:01,15.724743300000002,0.0008008,53.2173,28.1893,269.54,155.003,0.005135,0.00765972,0.0,0 STARLINK-4688,1 53714U 22107Q   22297.58334491  .00765972  00000-0  51350-2 0  9993,2 53714  53.2173  28.1893 0008008 269.5400 155.0030 15.72474330  1300,6729.965,91.575,357.219,346.441,0.0
53714.0,STARLINK-4688,PAYLOAD,2022-10-24 22:00:00,15.73154545,0.0008583,53.2168,26.5402,268.2553,244.593,0.0010097,0.00143513,0.0,0 STARLINK-4688,1 53714U 22107Q   22297.91667824  .00143513  00000-0  10097-2 0  9993,2 53714  53.2168  26.5402 0008583 268.2553 244.5930 15.73154545  1302,6728.025,91.536,355.664,344.115,0.0
53714.0,STARLINK-4688,PAYLOAD,2022-10-25 06:00:00,15.73266817,0.0008152,53.2147,24.8888,270.8271,330.9703,-0.00026831,-0.00038305,0.0,0 STARLINK-4688,1 53714U 22107Q   22298.25001157 -.00038305  00000-0 -26831-3 0  9990,2 53714  53.2147  24.8888 0008152 270.8271 330.9703 15.73266817  8015,6727.705,91.529,355.05400000000014,344.085,0.0
